{
  "type": "FeatureCollection",
  "features": [
    {
      "type": "Feature",
      "properties": {
        "norad_id": 30360,
        "name": "FENGYUN 1C DEB",
        "group": "fengyun-1c-debris",
        "lat": 34.391573614877075,
        "lon": -103.51719530241067,
        "alt_km": 783.3788410680263,
        "timestamp": "2025-12-26T19:22:39.182659+00:00",
        "meta_object_name": "FENGYUN 1C DEB",
        "meta_object_id": "1999-025ABX",
        "meta_epoch": "2025-12-25T04:07:04.531008",
        "meta_mean_motion": 14.26589304,
        "meta_eccentricity": 0.0030737,
        "meta_inclination": 98.7642,
        "meta_ra_of_asc_node": 68.784,
        "meta_arg_of_pericenter": 111.94,
        "meta_mean_anomaly": 276.511,
        "meta_ephemeris_type": 0,
        "meta_classification_type": "U",
        "meta_norad_cat_id": 30360,
        "meta_element_set_no": 999,
        "meta_rev_at_epoch": 97602,
        "meta_bstar": 0.001556,
        "meta_mean_motion_dot": 3.731e-05,
        "meta_mean_motion_ddot": 0,
        "tle_line1": "1 30360U 99025ABX 25359.17158022  .00003731  00000+0  15560-2 0  9999",
        "tle_line2": "2 30360  98.7642  68.7840 0030737 111.9400 276.5110 14.26589304976027"
      },
      "geometry": {
        "type": "Point",
        "coordinates": [
          -103.51719530241067,
          34.391573614877075
        ]
      }
    },
    {
      "type": "Feature",
      "properties": {
        "norad_id": 30361,
        "name": "FENGYUN 1C DEB",
        "group": "fengyun-1c-debris",
        "lat": -5.977032549449206,
        "lon": -144.49229253563266,
        "alt_km": 855.3435146599932,
        "timestamp": "2025-12-26T19:22:39.182669+00:00",
        "meta_object_name": "FENGYUN 1C DEB",
        "meta_object_id": "1999-025ABY",
        "meta_epoch": "2025-12-26T01:39:34.661952",
        "meta_mean_motion": 14.25405805,
        "meta_eccentricity": 0.00647497,
        "meta_inclination": 98.5687,
        "meta_ra_of_asc_node": 35.691,
        "meta_arg_of_pericenter": 351.4125,
        "meta_mean_anomaly": 8.5942,
        "meta_ephemeris_type": 0,
        "meta_classification_type": "U",
        "meta_norad_cat_id": 30361,
        "meta_element_set_no": 999,
        "meta_rev_at_epoch": 97806,
        "meta_bstar": 0.00079869848,
        "meta_mean_motion_dot": 1.883e-05,
        "meta_mean_motion_ddot": 0,
        "tle_line1": "1 30361U 99025ABY 25360.06915118  .00001883  00000+0  79870-3 0  9998",
        "tle_line2": "2 30361  98.5687  35.6910 0064749 351.4125   8.5942 14.25405805978065"
      },
      "geometry": {
        "type": "Point",
        "coordinates": [
          -144.49229253563266,
          -5.977032549449206
        ]
      }
    },
    {
      "type": "Feature",
      "properties": {
        "norad_id": 30362,
        "name": "FENGYUN 1C DEB",
        "group": "fengyun-1c-debris",
        "lat": -47.77750225156722,
        "lon": 93.62432408710517,
        "alt_km": 842.7527760235407,
        "timestamp": "2025-12-26T19:22:39.182679+00:00",
        "meta_object_name": "FENGYUN 1C DEB",
        "meta_object_id": "1999-025ABZ",
        "meta_epoch": "2025-12-26T06:23:04.231680",
        "meta_mean_motion": 14.11946407,
        "meta_eccentricity": 0.00946845,
        "meta_inclination": 99.0498,
        "meta_ra_of_asc_node": 283.1934,
        "meta_arg_of_pericenter": 306.4167,
        "meta_mean_anomaly": 52.83,
        "meta_ephemeris_type": 0,
        "meta_classification_type": "U",
        "meta_norad_cat_id": 30362,
        "meta_element_set_no": 999,
        "meta_rev_at_epoch": 96359,
        "meta_bstar": 0.0024084207,
        "meta_mean_motion_dot": 4.55e-05,
        "meta_mean_motion_ddot": 0,
        "tle_line1": "1 30362U 99025ABZ 25360.26602120  .00004550  00000+0  24084-2 0  9997",
        "tle_line2": "2 30362  99.0498 283.1934 0094684 306.4167  52.8300 14.11946407963590"
      },
      "geometry": {
        "type": "Point",
        "coordinates": [
          93.62432408710517,
          -47.77750225156722
        ]
      }
    },
    {
      "type": "Feature",
      "properties": {
        "norad_id": 30363,
        "name": "FENGYUN 1C DEB",
        "group": "fengyun-1c-debris",
        "lat": 17.247461866722553,
        "lon": 69.32820478511438,
        "alt_km": 782.5145435098575,
        "timestamp": "2025-12-26T19:22:39.182689+00:00",
        "meta_object_name": "FENGYUN 1C DEB",
        "meta_object_id": "1999-025ACA",
        "meta_epoch": "2025-12-26T04:02:39.283872",
        "meta_mean_motion": 14.1694874,
        "meta_eccentricity": 0.00785873,
        "meta_inclination": 99.03,
        "meta_ra_of_asc_node": 71.5096,
        "meta_arg_of_pericenter": 0.1401,
        "meta_mean_anomaly": 359.9782,
        "meta_ephemeris_type": 0,
        "meta_classification_type": "U",
        "meta_norad_cat_id": 30363,
        "meta_element_set_no": 999,
        "meta_rev_at_epoch": 97014,
        "meta_bstar": 0.001372767,
        "meta_mean_motion_dot": 2.795e-05,
        "meta_mean_motion_ddot": 0,
        "tle_line1": "1 30363U 99025ACA 25360.16851023  .00002795  00000+0  13728-2 0  9997",
        "tle_line2": "2 30363  99.0300  71.5096 0078587   0.1401 359.9782 14.16948740970145"
      },
      "geometry": {
        "type": "Point",
        "coordinates": [
          69.32820478511438,
          17.247461866722553
        ]
      }
    },
    {
      "type": "Feature",
      "properties": {
        "norad_id": 30364,
        "name": "FENGYUN 1C DEB",
        "group": "fengyun-1c-debris",
        "lat": 27.77298127956116,
        "lon": 100.31998296779282,
        "alt_km": 972.976216829702,
        "timestamp": "2025-12-26T19:22:39.182699+00:00",
        "meta_object_name": "FENGYUN 1C DEB",
        "meta_object_id": "1999-025ACB",
        "meta_epoch": "2025-12-25T17:21:29.143872",
        "meta_mean_motion": 14.17375884,
        "meta_eccentricity": 0.03302942,
        "meta_inclination": 98.1382,
        "meta_ra_of_asc_node": 275.003,
        "meta_arg_of_pericenter": 282.5055,
        "meta_mean_anomaly": 103.5826,
        "meta_ephemeris_type": 0,
        "meta_classification_type": "U",
        "meta_norad_cat_id": 30364,
        "meta_element_set_no": 999,
        "meta_rev_at_epoch": 95825,
        "meta_bstar": 0.0030520471,
        "meta_mean_motion_dot": 0.00010553,
        "meta_mean_motion_ddot": 0,
        "tle_line1": "1 30364U 99025ACB 25359.72325398  .00010553  00000+0  30520-2 0  9999",
        "tle_line2": "2 30364  98.1382 275.0030 0330294 282.5055 103.5826 14.17375884958256"
      },
      "geometry": {
        "type": "Point",
        "coordinates": [
          100.31998296779282,
          27.77298127956116
        ]
      }
    },
    {
      "type": "Feature",
      "properties": {
        "norad_id": 30365,
        "name": "FENGYUN 1C DEB",
        "group": "fengyun-1c-debris",
        "lat": 81.36567154611089,
        "lon": -92.53533189725253,
        "alt_km": 705.4337704884747,
        "timestamp": "2025-12-26T19:22:39.182709+00:00",
        "meta_object_name": "FENGYUN 1C DEB",
        "meta_object_id": "1999-025ACC",
        "meta_epoch": "2025-12-26T11:12:50.305824",
        "meta_mean_motion": 14.19244204,
        "meta_eccentricity": 0.01680346,
        "meta_inclination": 98.6198,
        "meta_ra_of_asc_node": 354.4799,
        "meta_arg_of_pericenter": 72.0186,
        "meta_mean_anomaly": 80.0432,
        "meta_ephemeris_type": 0,
        "meta_classification_type": "U",
        "meta_norad_cat_id": 30365,
        "meta_element_set_no": 999,
        "meta_rev_at_epoch": 97807,
        "meta_bstar": 0.00024323217,
        "meta_mean_motion_dot": 5.45e-06,
        "meta_mean_motion_ddot": 0,
        "tle_line1": "1 30365U 99025ACC 25360.46724891  .00000545  00000+0  24323-3 0  9999",
        "tle_line2": "2 30365  98.6198 354.4799 0168034  72.0186  80.0432 14.19244204978076"
      },
      "geometry": {
        "type": "Point",
        "coordinates": [
          -92.53533189725253,
          81.36567154611089
        ]
      }
    },
    {
      "type": "Feature",
      "properties": {
        "norad_id": 30366,
        "name": "FENGYUN 1C DEB",
        "group": "fengyun-1c-debris",
        "lat": 0.9754710980077201,
        "lon": 98.88289102760113,
        "alt_km": 738.0704424310761,
        "timestamp": "2025-12-26T19:22:39.182719+00:00",
        "meta_object_name": "FENGYUN 1C DEB",
        "meta_object_id": "1999-025ACD",
        "meta_epoch": "2025-12-25T17:33:30.676320",
        "meta_mean_motion": 14.33521453,
        "meta_eccentricity": 0.00624533,
        "meta_inclination": 98.9242,
        "meta_ra_of_asc_node": 277.6208,
        "meta_arg_of_pericenter": 180.8003,
        "meta_mean_anomaly": 209.401,
        "meta_ephemeris_type": 0,
        "meta_classification_type": "U",
        "meta_norad_cat_id": 30366,
        "meta_element_set_no": 999,
        "meta_rev_at_epoch": 98509,
        "meta_bstar": 0.00046377248,
        "meta_mean_motion_dot": 1.264e-05,
        "meta_mean_motion_ddot": 0,
        "tle_line1": "1 30366U 99025ACD 25359.73160505  .00001264  00000+0  46377-3 0  9996",
        "tle_line2": "2 30366  98.9242 277.6208 0062453 180.8003 209.4010 14.33521453985094"
      },
      "geometry": {
        "type": "Point",
        "coordinates": [
          98.88289102760113,
          0.9754710980077201
        ]
      }
    }
  ]
}